0 DELTA 1 DEB
1 10867U 76077CV  13281.55767799  .00001168  00000-0  40190-2 0  3793
2 10867 101.7875 269.1397 0305757 183.3935 300.1878 12.86017962719577
0 DELTA 1 DEB
1 10867U 76077CV  13284.19034875  .00001268  00000-0  43463-2 0  3807
2 10867 101.7865 271.9200 0306082 177.7676 248.8130 12.86024453719911
0 DELTA 1 DEB
1 10867U 76077CV  13285.90268912  .00000800  00000-0  28022-2 0  3814
2 10867 101.7874 273.7294 0305737 174.1939 256.4672 12.86023527720136
0 DELTA 1 DEB
1 10867U 76077CV  13287.92285872  .00001492  00000-0  50861-2 0  3827
2 10867 101.7874 275.8629 0305840 169.9449 249.3554 12.86030001720397
0 DELTA 1 DEB
1 10867U 76077CV  13289.86963259  .00001365  00000-0  46620-2 0  3832
2 10867 101.7874 277.9187 0306166 165.7987 262.4919 12.86031857720641
0 DELTA 1 DEB
1 10867U 76077CV  13292.20354321  .00000751  00000-0  26360-2 0  3846
2 10867 101.7877 280.3834 0306577 160.8359 268.0268 12.86035789720946
0 DELTA 1 DEB
1 10867U 76077CV  13294.47743940  .00000823  00000-0  28725-2 0  3854
2 10867 101.7879 282.7852 0306792 156.0801 355.6620 12.86037705721230
